{
  "norad_id": 52161,
  "name": "ARCSAT-1",
  "history": [
    {
      "epoch": "2026-03-28T18:06:28.844928Z",
      "apogee_km": 416.80743481815443,
      "perigee_km": 407.91215563627884,
      "latitude_deg": 2.2485313159125532e-05,
      "longitude_deg": 81.17930442925503,
      "height_km": 418.13202065630827,
      "semi_major_axis_km": 6790.496795227216,
      "eccentricity": 0.00065498,
      "inclination_deg": 97.2734,
      "raan_deg": 178.9699,
      "arg_perigee_deg": 126.4846,
      "mean_anomaly_deg": 233.7011,
      "mean_motion_rev_day": 15.5149521
    },
    {
      "epoch": "2026-03-29T04:56:36.081888Z",
      "apogee_km": 416.7557408313305,
      "perigee_km": 407.84532869821214,
      "latitude_deg": 6.76958059784092e-05,
      "longitude_deg": -81.33924704981678,
      "height_km": 417.9905204578913,
      "semi_major_axis_km": 6790.437534764771,
      "eccentricity": 0.0006561,
      "inclination_deg": 97.2737,
      "raan_deg": 179.4265,
      "arg_perigee_deg": 125.1129,
      "mean_anomaly_deg": 235.074,
      "mean_motion_rev_day": 15.5151552
    },
    {
      "epoch": "2026-03-30T01:03:57.097440Z",
      "apogee_km": 416.6661642171448,
      "perigee_km": 407.76944135453596,
      "latitude_deg": -1.3774947215650383e-05,
      "longitude_deg": -23.155402941801906,
      "height_km": 417.77428436322276,
      "semi_major_axis_km": 6790.354802785841,
      "eccentricity": 0.0006551,
      "inclination_deg": 97.2738,
      "raan_deg": 180.2743,
      "arg_perigee_deg": 123.1011,
      "mean_anomaly_deg": 237.0871,
      "mean_motion_rev_day": 15.51543875
    },
    {
      "epoch": "2026-03-30T05:42:34.040736Z",
      "apogee_km": 416.63649552619245,
      "perigee_km": 407.7608477697813,
      "latitude_deg": -3.567723435208983e-05,
      "longitude_deg": -92.80443602313638,
      "height_km": 417.6870323940003,
      "semi_major_axis_km": 6790.335671647987,
      "eccentricity": 0.00065355,
      "inclination_deg": 97.2739,
      "raan_deg": 180.4699,
      "arg_perigee_deg": 122.1467,
      "mean_anomaly_deg": 238.042,
      "mean_motion_rev_day": 15.51550432
    },
    {
      "epoch": "2026-03-30T11:54:03.188736Z",
      "apogee_km": 416.5893602920778,
      "perigee_km": 407.7672468433766,
      "latitude_deg": 1.2424583511594535e-06,
      "longitude_deg": 174.33113659392703,
      "height_km": 417.63864537320495,
      "semi_major_axis_km": 6790.315303567727,
      "eccentricity": 0.00064961,
      "inclination_deg": 97.274,
      "raan_deg": 180.7312,
      "arg_perigee_deg": 121.935,
      "mean_anomaly_deg": 238.2535,
      "mean_motion_rev_day": 15.51557413
    },
    {
      "epoch": "2026-03-30T16:32:39.964416Z",
      "apogee_km": 416.57703406291785,
      "perigee_km": 407.7386504903143,
      "latitude_deg": -4.394941178896299e-05,
      "longitude_deg": 104.68290678091985,
      "height_km": 417.5810723178551,
      "semi_major_axis_km": 6790.294842276616,
      "eccentricity": 0.00065081,
      "inclination_deg": 97.274,
      "raan_deg": 180.9269,
      "arg_perigee_deg": 121.3059,
      "mean_anomaly_deg": 238.8831,
      "mean_motion_rev_day": 15.51564426
    }
  ]
}